NORAD_CAT_ID,OBJECT_NAME,OBJECT_TYPE,EPOCH,MEAN_MOTION,ECCENTRICITY,INCLINATION,RA_OF_ASC_NODE,ARG_OF_PERICENTER,MEAN_ANOMALY,BSTAR,MEAN_MOTION_DOT,MEAN_MOTION_DDOT,TLE_LINE0,TLE_LINE1,TLE_LINE2,SEMIMAJOR_AXIS,PERIOD,APOGEE,PERIGEE,DECAYED
52646.0,STARLINK-3832,PAYLOAD,2022-07-17 04:00:01,15.73217371,0.0002359,53.2161,126.1704,19.5121,127.0045,-0.00030036,-0.00042599,0.0,0 STARLINK-3832,1 52646U 22052BA  22198.16668981 -.00042599  00000-0 -30036-3 0  9997,2 52646  53.2161 126.1704 0002359  19.5121 127.0045 15.73217371 10357,6727.846,91.532,351.298,348.124,0.0
52646.0,STARLINK-3832,PAYLOAD,2022-07-17 14:00:01,15.7318344,0.0002169,53.216,124.1067,20.2876,327.314,-0.00036171,-0.00051047,0.0,0 STARLINK-3832,1 52646U 22052BA  22198.58334491 -.00051047  00000-0 -36171-3 0  9993,2 52646  53.2160 124.1067 0002169  20.2876 327.3140 15.73183440  1306,6727.941999999999,91.534,351.267,348.348,0.0
52646.0,STARLINK-3832,PAYLOAD,2022-07-17 22:00:00,15.731649,0.0002244,53.2165,122.4546,28.6122,47.8747,-0.00057704,-0.00080722,0.0,0 STARLINK-3832,1 52646U 22052BA  22198.91667824 -.00080722  00000-0 -57704-3 0  9996,2 52646  53.2165 122.4546 0002244  28.6122  47.8747 15.73164900  1301,6727.995,91.535,351.37,348.35,0.0
52646.0,STARLINK-3832,PAYLOAD,2022-07-18 12:00:00,15.73154534,0.0002295,53.2152,119.5714,29.5235,112.4167,0.00022936,0.00031629,0.0,0 STARLINK-3832,1 52646U 22052BA  22199.50001157  .00031629  00000-0  22936-3 0  9992,2 52646  53.2152 119.5714 0002295  29.5235 112.4167 15.73154534 10567,6728.025,91.536,351.434,348.346,0.0
52646.0,STARLINK-3832,PAYLOAD,2022-07-18 14:00:01,15.73133493,0.000225,53.2152,119.1586,30.4017,223.7576,0.00056415,0.00079081,0.0,0 STARLINK-3832,1 52646U 22052BA  22199.58334491  .00079081  00000-0  56415-3 0  9993,2 52646  53.2152 119.1586 0002250  30.4017 223.7576 15.73133493  1303,6728.085,91.537,351.464,348.436,0.0
52646.0,STARLINK-3832,PAYLOAD,2022-07-18 22:00:00,15.73208291,0.0002283,53.2157,117.5092,32.1373,310.8982,0.00012102,0.00016403,0.0,0 STARLINK-3832,1 52646U 22052BA  22199.91667824  .00016403  00000-0  12102-3 0  9993,2 52646  53.2157 117.5092 0002283  32.1373 310.8982 15.73208291  1300,6727.871999999999,91.533,351.273,348.201,0.0
52646.0,STARLINK-3832,PAYLOAD,2022-07-19 04:00:00,15.73197241,0.0002489,53.2159,116.2727,29.9248,289.8236,0.00062772,0.00088405,0.0,0 STARLINK-3832,1 52646U 22052BA  22200.16667824  .00088405  00000-0  62772-3 0  9992,2 52646  53.2159 116.2727 0002489  29.9248 289.8236 15.73197241 10664,6727.903,91.533,351.4430000000001,348.093,0.0
52646.0,STARLINK-3832,PAYLOAD,2022-07-19 14:00:01,15.7326121,0.000213,53.2152,114.2097,28.4612,132.5352,-3.4882e-05,-5.527e-05,0.0,0 STARLINK-3832,1 52646U 22052BA  22200.58334491 -.00005527  00000-0 -34882-4 0  9997,2 52646  53.2152 114.2097 0002130  28.4612 132.5352 15.73261210  1309,6727.721,91.53,351.019,348.153,0.0
52646.0,STARLINK-3832,PAYLOAD,2022-07-19 22:00:00,15.73265119,0.0002191,53.216,112.5581,32.1058,217.8666,-0.0006522,-0.0009143,0.0,0 STARLINK-3832,1 52646U 22052BA  22200.91667824 -.00091430  00000-0 -65220-3 0  9990,2 52646  53.2160 112.5581 0002191  32.1058 217.8666 15.73265119  1307,6727.71,91.529,351.0490000000001,348.1,0.0
52646.0,STARLINK-3832,PAYLOAD,2022-07-20 12:00:00,15.73222463,0.0001964,53.2147,109.6732,23.5219,292.2505,-5.7045e-05,-8.627e-05,0.0,0 STARLINK-3832,1 52646U 22052BA  22201.50001157 -.00008627  00000-0 -57045-4 0  9990,2 52646  53.2147 109.6732 0001964  23.5219 292.2505 15.73222463 10873,6727.831,91.532,351.017,348.375,0.0
52646.0,STARLINK-3832,PAYLOAD,2022-07-20 14:00:01,15.73194684,0.0001892,53.2146,109.2604,22.7884,45.233,0.00030759,0.00042759,0.0,0 STARLINK-3832,1 52646U 22052BA  22201.58334491  .00042759  00000-0  30759-3 0  9992,2 52646  53.2146 109.2604 0001892  22.7884  45.2330 15.73194684  1308,6727.91,91.533,351.048,348.50199999999984,0.0
52646.0,STARLINK-3832,PAYLOAD,2022-07-20 22:00:01,15.73233608,0.0002014,53.215,107.6118,23.8312,133.1872,-0.00083663,-0.00116602,0.0,0 STARLINK-3832,1 52646U 22052BA  22201.91668981 -.00116602  00000-0 -83663-3 0  9996,2 52646  53.2150 107.6118 0002014  23.8312 133.1872 15.73233608  1308,6727.799,91.531,351.019,348.309,0.0
52646.0,STARLINK-3832,PAYLOAD,2022-07-21 04:00:00,15.73113596,0.0002214,53.2151,106.3759,21.72300000000001,111.9076,-0.00018097,-0.0002585,0.0,0 STARLINK-3832,1 52646U 22052BA  22202.16667824 -.00025850  00000-0 -18097-3 0  9992,2 52646  53.2151 106.3759 0002214  21.7230 111.9076 15.73113596 10981,6728.142,91.538,351.496,348.517,0.0
52646.0,STARLINK-3832,PAYLOAD,2022-07-21 14:00:01,15.73064368,0.0001993,53.215,104.312,26.2348,308.4884,0.00068925,0.0009667,0.0,0 STARLINK-3832,1 52646U 22052BA  22202.58335648  .00096670  00000-0  68925-3 0  9995,2 52646  53.2150 104.3120 0001993  26.2348 308.4884 15.73064368  1301,6728.281999999997,91.541,351.48800000000006,348.806,0.0
52646.0,STARLINK-3832,PAYLOAD,2022-07-21 20:00:01,15.73109937,0.0002009999999999,53.2151,103.0758,25.7146,285.5379,0.00086046,0.00121434,0.0,0 STARLINK-3832,1 52646U 22052BA  22202.83334491  .00121434  00000-0  86046-3 0  9999,2 52646  53.2151 103.0758 0002010  25.7146 285.5379 15.73109937 11088,6728.151999999999,91.538,351.369,348.665,0.0
52646.0,STARLINK-3832,PAYLOAD,2022-07-21 22:00:00,15.73133374,0.0002065,53.215,102.6642,24.1097,39.3504,0.00078031,0.00110025,0.0,0 STARLINK-3832,1 52646U 22052BA  22202.91667824  .00110025  00000-0  78031-3 0  9996,2 52646  53.2150 102.6642 0002065  24.1097  39.3504 15.73133374  1303,6728.085,91.537,351.339,348.561,0.0
52646.0,STARLINK-3832,PAYLOAD,2022-07-22 06:00:00,15.73232464,0.0002103,53.2144,101.0152,18.7472,133.6194,0.00046045,0.00064593,0.0,0 STARLINK-3832,1 52646U 22052BA  22203.25001157  .00064593  00000-0  46045-3 0  9993,2 52646  53.2144 101.0152 0002103  18.7472 133.6194 15.73232464  1307,6727.803000000001,91.531,351.082,348.25300000000016,0.0
52646.0,STARLINK-3832,PAYLOAD,2022-07-22 20:00:01,15.73316375,0.0001915,53.215,98.1271,26.1808,191.9652,-0.00050944,-0.00071871,0.0,0 STARLINK-3832,1 52646U 22052BA  22203.83334491 -.00071871  00000-0 -50944-3 0  9999,2 52646  53.2150  98.1271 0001915  26.1808 191.9652 15.73316375 11242,6727.563,91.526,350.717,348.14,0.0
52646.0,STARLINK-3832,PAYLOAD,2022-07-22 22:00:00,15.73303455,0.0002008999999999,53.2151,97.7149,24.2049,306.207,-0.0005126,-0.00072271,0.0,0 STARLINK-3832,1 52646U 22052BA  22203.91667824 -.00072271  00000-0 -51260-3 0  9994,2 52646  53.2151  97.7149 0002009  24.2049 306.2070 15.73303455  1309,6727.6,91.527,350.81699999999995,348.11400000000015,0.0
52646.0,STARLINK-3832,PAYLOAD,2022-07-23 14:00:01,15.7307109,0.000217,53.217,94.4089,24.5537,123.7959,-0.0053211,-0.00685803,0.0,0 STARLINK-3832,1 52646U 22052BA  22204.58335648 -.00685803  00000-0 -53211-2 0  9992,2 52646  53.2170  94.4089 0002170  24.5537 123.7959 15.73071090  1306,6728.263000000001,91.541,351.588,348.668,0.0
52646.0,STARLINK-3832,PAYLOAD,2022-07-23 22:00:00,15.72579712,0.0002276999999999,53.2175,92.7604,21.3143,215.46400000000003,-0.0085458,-0.01051595,0.0,0 STARLINK-3832,1 52646U 22052BA  22204.91667824 -.01051595  00000-0 -85458-2 0  9997,2 52646  53.2175  92.7604 0002277  21.3143 215.4640 15.72579712  1300,6729.6640000000025,91.569,353.06199999999984,349.997,0.0
52646.0,STARLINK-3832,PAYLOAD,2022-07-24 14:00:01,15.71060675,0.0002073,53.2172,89.4669,19.6904,31.6154,-0.0091237,-0.0105207,0.0,0 STARLINK-3832,1 52646U 22052BA  22205.58334491 -.01052070  00000-0 -91237-2 0  9993,2 52646  53.2172  89.4669 0002073  19.6904  31.6154 15.71060675  1300,6734.001,91.658,357.26199999999994,354.47,0.0
52646.0,STARLINK-3832,PAYLOAD,2022-07-24 22:00:00,15.70301193,0.0002261,53.2172,87.8257,22.6095,114.5889,-0.0094057999999999,-0.01050602,0.0,0 STARLINK-3832,1 52646U 22052BA  22205.91667824 -.01050602  00000-0 -94058-2 0  9992,2 52646  53.2172  87.8257 0002261  22.6095 114.5889 15.70301193  1307,6736.1730000000025,91.702,359.561,356.514,0.0
52646.0,STARLINK-3832,PAYLOAD,2022-07-25 04:00:01,15.69734106,0.0001069,53.2172,86.5952,27.2553,83.8287,-0.0096686,-0.01053682,0.0,0 STARLINK-3832,1 52646U 22052BA  22206.16668981 -.01053682  00000-0 -96686-2 0  9995,2 52646  53.2172  86.5952 0001069  27.2553  83.8287 15.69734106 11617,6737.795,91.735,360.38,358.939,0.0
52646.0,STARLINK-3832,PAYLOAD,2022-07-25 14:00:01,15.68782087,0.0001281,53.2174,84.5432,47.2353,259.0143,-0.010022,-0.01050153,0.0,0 STARLINK-3832,1 52646U 22052BA  22206.58334491 -.01050153  00000-0 -10022-1 0  9996,2 52646  53.2174  84.5432 0001281  47.2353 259.0143 15.68782087  1309,6740.52,91.791,363.249,361.522,0.0
52646.0,STARLINK-3832,PAYLOAD,2022-07-25 20:00:01,15.68213303,0.0001384,53.2176,83.3166,45.361,233.3396,-0.010264,-0.01050469,0.0,0 STARLINK-3832,1 52646U 22052BA  22206.83334491 -.01050469  00000-0 -10264-1 0  9992,2 52646  53.2176  83.3166 0001384  45.3610 233.3396 15.68213303 11712,6742.15,91.824,364.948,363.082,0.0
52646.0,STARLINK-3832,PAYLOAD,2022-07-25 22:00:00,15.68024961,0.0001465999999999,53.2176,82.9077,38.4738,350.9296,-0.010371,-0.01052951,0.0,0 STARLINK-3832,1 52646U 22052BA  22206.91667824 -.01052951  00000-0 -10371-1 0  9997,2 52646  53.2176  82.9077 0001466  38.4738 350.9296 15.68024961  1302,6742.69,91.835,365.543,363.567,0.0
52646.0,STARLINK-3832,PAYLOAD,2022-07-26 12:00:00,15.66692831,0.000135,53.2173,80.0448,43.8427,38.89,-0.010898,-0.01048112,0.0,0 STARLINK-3832,1 52646U 22052BA  22207.50001157 -.01048112  00000-0 -10898-1 0  9992,2 52646  53.2173  80.0448 0001350  43.8427  38.8900 15.66692831 11824,6746.512,91.913,369.287,367.466,0.0
52646.0,STARLINK-3832,PAYLOAD,2022-07-26 14:00:01,15.66504851,0.0001415,53.2173,79.6363,52.9147,140.0643,-0.011016,-0.01051068,0.0,0 STARLINK-3832,1 52646U 22052BA  22207.58334491 -.01051068  00000-0 -11016-1 0  9997,2 52646  53.2173  79.6363 0001415  52.9147 140.0643 15.66504851  1302,6747.051,91.924,369.871,367.962,0.0
